ONEWEB-0512             
1 54130U 22138T   24251.52964750  .00000099  00000+0  21599-3 0  9997
2 54130  87.9099  73.8127 0001262  97.8458 262.2818 13.19722634 91385
ONEWEB-0513             
1 54131U 22138U   24251.57622859  .00000031  00000+0  44677-4 0  9993
2 54131  87.9097  73.7958 0001071  91.8065 268.3190 13.19726683 91277
ONEWEB-0514             
1 54132U 22138V   24251.54544615  .00000057  00000+0  11061-3 0  9992
2 54132  87.9091  73.7946 0001731  87.2070 272.9261 13.19722309 91403
ONEWEB-0518             
1 54136U 22138Z   24251.59440530  .00000139  00000+0  31545-3 0  9992
2 54136  87.9098  73.7990 0001643  86.1791 273.9529 13.19723052 91418
ONEWEB-0519             
1 54137U 22138AA  24251.54386501  .00000121  00000+0  26955-3 0  9995
2 54137  87.9090  73.7857 0001288  88.4449 271.6832 13.19723052 91415
